{
    "links": {
        "self": "http://www.neowsapp.com/rest/v1/neo/54016319?api_key=iIulBulltgU6a56xZRHN4H3l9WmuAYTsLGpBGhQ2"
    },
    "id": "54016319",
    "neo_reference_id": "54016319",
    "name": "(2020 FH3)",
    "designation": "2020 FH3",
    "nasa_jpl_url": "http://ssd.jpl.nasa.gov/sbdb.cgi?sstr=54016319",
    "absolute_magnitude_h": 26.316,
    "estimated_diameter": {
        "kilometers": {
            "estimated_diameter_min": 0.0144995651,
            "estimated_diameter_max": 0.0324220132
        },
        "meters": {
            "estimated_diameter_min": 14.4995651136,
            "estimated_diameter_max": 32.4220132381
        },
        "miles": {
            "estimated_diameter_min": 0.0090096093,
            "estimated_diameter_max": 0.0201460988
        },
        "feet": {
            "estimated_diameter_min": 47.5707532072,
            "estimated_diameter_max": 106.3714379122
        }
    },
    "is_potentially_hazardous_asteroid": false,
    "close_approach_data": [
        {
            "close_approach_date": "2020-03-18",
            "close_approach_date_full": "2020-Mar-18 17:48",
            "epoch_date_close_approach": 1584553680000,
            "relative_velocity": {
                "kilometers_per_second": "11.0100645315",
                "kilometers_per_hour": "39636.232313477",
                "miles_per_hour": "24628.4133505602"
            },
            "miss_distance": {
                "astronomical": "0.0202589252",
                "lunar": "7.8807219028",
                "kilometers": "3030692.058409324",
                "miles": "1883184.7206597112"
            },
            "orbiting_body": "Earth"
        }
    ],
    "orbital_data": {
        "orbit_id": "2",
        "orbit_determination_date": "2020-04-01 05:54:39",
        "first_observation_date": "2020-03-22",
        "last_observation_date": "2020-04-01",
        "data_arc_in_days": 10,
        "observations_used": 40,
        "orbit_uncertainty": "8",
        "minimum_orbit_intersection": ".0142889",
        "jupiter_tisserand_invariant": "3.696",
        "epoch_osculation": "2458931.5",
        "eccentricity": ".53989053538092",
        "semi_major_axis": "1.95113490927552",
        "inclination": "2.97222992418609",
        "ascending_node_longitude": "191.9569018126898",
        "orbital_period": "995.4727491441017",
        "perihelion_distance": ".8977356385063567",
        "perihelion_argument": "299.8331900821842",
        "aphelion_distance": "3.004534180044684",
        "perihelion_time": "2458892.869744180568",
        "mean_anomaly": "13.97013841609681",
        "mean_motion": ".3616372224247471",
        "equinox": "J2000",
        "orbit_class": {
            "orbit_class_type": "APO",
            "orbit_class_description": "Near-Earth asteroid orbits which cross the Earth’s orbit similar to that of 1862 Apollo",
            "orbit_class_range": "a (semi-major axis) > 1.0 AU; q (perihelion) < 1.017 AU"
        }
    },
    "is_sentry_object": false
}